      2.10          N: GNSS NAV DATA                        RINEX VERSION / TYPE
fic2rin                                 02/04/2022 00:17:55 PGM / RUN BY / DATE
                                                            END OF HEADER
29 22  2  3  4  0  0.0-4.754164256155e-04-4.774847184308e-12 0.000000000000e+00
    4.100000000000e+01 8.009375000000e+01 3.791229348491e-09-1.282997411272e+00
    4.006549715996e-06 1.797827659175e-03 1.309253275394e-05 5.153763929367e+03
    3.600000000000e+05-7.450580596924e-09-2.646637245396e+00-4.284083843231e-08
    9.822719160709e-01 1.425312500000e+02 2.269484368836e+00-7.614245735326e-09
   -9.571827276455e-11 1.000000000000e+00 2.195000000000e+03 0.000000000000e+00
    2.400000000000e+00 0.000000000000e+00-1.024454832077e-08 4.100000000000e+01
    3.528000000000e+05 4.000000000000e+00
15 22  2  3  4  0  0.0-8.674105629325e-05 2.842170943040e-12 0.000000000000e+00
    6.600000000000e+01-8.793750000000e+01 4.704481674831e-09-2.349784240643e+00
   -4.598870873451e-06 1.392114383634e-02 1.223944127560e-05 5.153743873596e+03
    3.600000000000e+05 1.359730958939e-07 2.962262891854e-01-6.519258022308e-08
    9.303551068531e-01 1.230937500000e+02 1.073861261283e+00-7.900329080417e-09
    6.535986535788e-11 1.000000000000e+00 2.195000000000e+03 0.000000000000e+00
    2.400000000000e+00 0.000000000000e+00-1.071020960808e-08 6.600000000000e+01
    3.528000000000e+05 4.000000000000e+00
13 22  2  3  4  0  0.0 2.555022947490e-04 6.139089236967e-12 0.000000000000e+00
    8.500000000000e+01-3.309375000000e+01 3.938378334980e-09-1.935959312568e+00
   -1.754611730576e-06 5.795269622467e-03 1.283921301365e-05 5.153680631638e+03
    3.600000000000e+05 7.636845111847e-08 5.544972375614e-01-1.210719347000e-07
    9.688616517881e-01 1.368750000000e+02 9.648419010808e-01-7.576744173236e-09
    2.064371703653e-10 1.000000000000e+00 2.195000000000e+03 0.000000000000e+00
    2.400000000000e+00 0.000000000000e+00-1.117587089539e-08 8.500000000000e+01
    3.528000000000e+05 4.000000000000e+00
31 22  2  3  4  0  0.0-1.629441976547e-04-1.818989403546e-12 0.000000000000e+00
    3.200000000000e+01 4.040625000000e+01 4.889846538879e-09 1.539830659351e+00
    2.272427082062e-06 1.045516959857e-02 7.385388016701e-06 5.153677646637e+03
    3.600000000000e+05-5.587935447693e-08 1.491849579603e+00 8.754432201385e-08
    9.548039116668e-01 2.364062500000e+02 3.727290415464e-01-8.271415966247e-09
    4.475186409477e-10 1.000000000000e+00 2.195000000000e+03 0.000000000000e+00
    2.400000000000e+00 0.000000000000e+00-1.350417733192e-08 3.200000000000e+01
    3.528000000000e+05 4.000000000000e+00
32 22  2  3  4  0  0.0-6.105331704021e-05-6.480149750132e-12 0.000000000000e+00
    7.800000000000e+01-7.793750000000e+01 4.291607334100e-09-7.394829521932e-01
   -4.086643457413e-06 5.518132937141e-03 1.297332346439e-05 5.153776767731e+03
    3.600000000000e+05 9.685754776001e-08 4.130515096190e-01 1.192092895508e-07
    9.583318819810e-01 1.285937500000e+02-2.363751579741e+00-7.942830850787e-09
    6.071681481333e-12 1.000000000000e+00 2.195000000000e+03 0.000000000000e+00
    2.400000000000e+00 0.000000000000e+00 4.656612873077e-10 7.800000000000e+01
    3.528000000000e+05 4.000000000000e+00
30 22  2  3  4  0  0.0-5.109715275466e-04-2.501110429876e-12 0.000000000000e+00
    7.800000000000e+01 4.618750000000e+01 5.334865075687e-09 2.021854098476e+00
    2.425163984299e-06 5.472269724123e-03 6.832182407379e-06 5.153581645966e+03
    3.600000000000e+05-1.527369022369e-07 1.487123726615e+00 4.842877388000e-08
    9.357414702796e-01 2.356250000000e+02-2.749450908569e+00-8.506068597614e-09
    4.928776731906e-10 1.000000000000e+00 2.195000000000e+03 0.000000000000e+00
    2.400000000000e+00 0.000000000000e+00 3.725290298462e-09 7.800000000000e+01
    3.528000000000e+05 4.000000000000e+00
26 22  2  3  4  0  0.0 1.799557358027e-04 3.296918293927e-12 0.000000000000e+00
    3.900000000000e+01-3.421875000000e+01 5.435583556730e-09 4.385502009990e-01
   -1.726672053337e-06 6.853329599835e-03 5.528330802917e-06 5.153684867859e+03
    3.600000000000e+05 8.009374141693e-08 2.463384819511e+00 1.266598701477e-07
    9.386473741793e-01 2.603125000000e+02 3.618787537026e-01-8.599286766239e-09
   -3.893019302737e-10 1.000000000000e+00 2.195000000000e+03 0.000000000000e+00
    2.400000000000e+00 0.000000000000e+00 6.984919309616e-09 3.900000000000e+01
    3.528000000000e+05 4.000000000000e+00
20 22  2  3  4  0  0.0 5.168784409761e-04-2.273736754432e-13 0.000000000000e+00
    2.400000000000e+01-8.325000000000e+01 5.265576475253e-09-2.592397794791e+00
   -4.308298230171e-06 5.228023277596e-03 1.745298504829e-06 5.153739618301e+03
    3.600000000000e+05-1.359730958939e-07-7.801661275879e-01-8.754432201385e-08
    9.416096633306e-01 3.321250000000e+02 3.122390531321e+00-8.695362196738e-09
   -3.503717372464e-10 1.000000000000e+00 2.195000000000e+03 0.000000000000e+00
    2.400000000000e+00 0.000000000000e+00-8.381903171539e-09 2.400000000000e+01
    3.528000000000e+05 4.000000000000e+00
24 22  2  3  4  0  0.0 2.760859206319e-04-1.250555214938e-12 0.000000000000e+00
    1.900000000000e+01 5.431250000000e+01 5.191287666540e-09 2.958043919500e+00
    2.715736627579e-06 1.231497782283e-02 7.364898920059e-06 5.153693756104e+03
    3.600000000000e+05 3.166496753693e-08 1.391218261048e+00-8.195638656616e-08
    9.340993593648e-01 2.227812500000e+02 8.057174547604e-01-8.241057558840e-09
    6.464554988949e-10 1.000000000000e+00 2.195000000000e+03 0.000000000000e+00
    2.400000000000e+00 0.000000000000e+00 2.328306436539e-09 1.900000000000e+01
    3.528000000000e+05 4.000000000000e+00
27 22  2  3  4  0  0.0 1.016813330352e-04 1.818989403546e-11 0.000000000000e+00
    6.900000000000e+01 5.015625000000e+01 3.975879897071e-09-1.399688506987e+00
    2.499669790268e-06 1.014807447791e-02 1.284293830395e-05 5.153653085709e+03
    3.600000000000e+05 1.657754182816e-07-2.721969083978e+00-1.508742570877e-07
    9.738865296202e-01 1.357812500000e+02 6.334501114540e-01-7.616031523997e-09
   -1.303625729816e-10 1.000000000000e+00 2.195000000000e+03 0.000000000000e+00
    2.400000000000e+00 0.000000000000e+00 1.396983861923e-09 6.900000000000e+01
    3.528000000000e+05 4.000000000000e+00
22 22  2  3  4  0  0.0 2.079107798636e-04 5.570655048359e-12 0.000000000000e+00
    5.800000000000e+01-5.943750000000e+01 4.133386457851e-09-1.573716968131e+00
   -3.051012754440e-06 1.282904262189e-02 1.306645572186e-05 5.153659040451e+03
    3.600000000000e+05 3.241002559662e-07 5.030365486457e-01 2.179294824600e-07
    9.615920256419e-01 1.266562500000e+02-1.875507989956e+00-7.706749588483e-09
    9.786121916973e-11 1.000000000000e+00 2.195000000000e+03 0.000000000000e+00
    2.400000000000e+00 0.000000000000e+00-9.778887033463e-09 5.800000000000e+01
    3.528000000000e+05 4.000000000000e+00
19 22  2  3  4  0  0.0 1.139114610851e-04 5.002220859751e-12 0.000000000000e+00
    6.000000000000e+01 6.121875000000e+01 3.903376877029e-09 9.663360656273e-01
    3.101304173470e-06 8.947467082180e-03 1.196190714836e-05 5.153689825058e+03
    3.600000000000e+05-2.048909664154e-08-2.614744184442e+00-1.732259988785e-07
    9.789976216034e-01 1.612187500000e+02 2.003641834856e+00-7.736036522687e-09
   -4.821629411647e-11 1.000000000000e+00 2.195000000000e+03 0.000000000000e+00
    2.400000000000e+00 0.000000000000e+00-1.583248376846e-08 6.000000000000e+01
    3.528000000000e+05 4.000000000000e+00
25 22  2  3  4  0  0.0 2.800854854286e-04 5.456968210638e-12 0.000000000000e+00
    5.500000000000e+01-3.253125000000e+01 4.970207029073e-09 1.090247400838e+00
   -1.799315214157e-06 1.046396035235e-02 6.694346666336e-06 5.153708772659e+03
    3.600000000000e+05-1.247972249985e-07 2.510143125034e+00 8.754432201385e-08
    9.578385187104e-01 2.492812500000e+02 9.762314688049e-01-8.414993375394e-09
   -5.143071372424e-10 1.000000000000e+00 2.195000000000e+03 0.000000000000e+00
    2.400000000000e+00 0.000000000000e+00 5.587935447693e-09 5.500000000000e+01
    3.528000000000e+05 4.000000000000e+00
17 22  2  3  4  0  0.0 5.700062029064e-04 5.115907697473e-12 0.000000000000e+00
    8.800000000000e+01 6.815625000000e+01 3.844803008621e-09-1.440259779389e+00
    3.792345523834e-06 1.365311455447e-02 1.227483153343e-05 5.153760074615e+03
    3.600000000000e+05-1.266598701477e-07-2.659614327932e+00 3.613531589508e-07
    9.802725576353e-01 1.579375000000e+02-1.501652823330e+00-7.669248026393e-09
   -1.046472161195e-10 1.000000000000e+00 2.195000000000e+03 0.000000000000e+00
    2.400000000000e+00 0.000000000000e+00-1.117587089539e-08 8.800000000000e+01
    3.528000000000e+05 4.000000000000e+00
23 22  2  3  4  0  0.0 4.942063242197e-06-3.637978807092e-12 0.000000000000e+00
    8.800000000000e+01-9.606250000000e+01 4.717696510996e-09 1.959887821789e+00
   -4.868954420090e-06 1.983021385968e-03 3.183260560036e-06 5.153701564789e+03
    3.600000000000e+05 2.235174179077e-08-6.537091861830e-01 8.195638656616e-08
    9.673840752697e-01 3.223437500000e+02 2.949649182077e+00-8.483210502625e-09
   -4.293035965037e-10 1.000000000000e+00 2.195000000000e+03 0.000000000000e+00
    2.400000000000e+00 0.000000000000e+00-8.381903171539e-09 6.000000000000e+02
    3.528000000000e+05 4.000000000000e+00
18 22  2  3  4  0  0.0 2.481592819095e-04-7.844391802792e-12 0.000000000000e+00
    5.000000000000e+01 1.098125000000e+02 4.640550440410e-09 2.857507250281e+00
    5.720183253288e-06 2.095064264722e-03 3.820285201073e-06 5.153623229980e+03
    3.600000000000e+05-2.421438694000e-08-1.653764245187e+00-2.048909664154e-08
    9.703165311326e-01 3.131875000000e+02 3.104522454290e+00-8.358205295657e-09
    3.932306653499e-10 1.000000000000e+00 2.195000000000e+03 0.000000000000e+00
    2.400000000000e+00 0.000000000000e+00-8.381903171539e-09 3.060000000000e+02
    3.528000000000e+05 4.000000000000e+00
